ORBCOMM FM05            
1 25117U 97084F   25292.91131170  .00003329  00000+0  95760-3 0  9993
2 25117  45.0122 129.0285 0002773 121.3743 238.7380 14.46398781458660
ORBCOMM FM06            
1 25118U 97084G   25292.98967196  .00003283  00000+0  94174-3 0  9993
2 25118  45.0115 128.2448 0001693 119.8670  34.6449 14.46556031459592
ORBCOMM FM07            
1 25119U 97084H   25292.90393358  .00003098  00000+0  89057-3 0  9997
2 25119  45.0113 129.4156 0003590 118.2920 241.8294 14.46572125459579
ORBCOMM FM03            
1 25158U 98007B   25292.93750433  .00002085  00000+0  77158-3 0  9994
2 25158 107.9635  31.9135 0043114  28.3464 332.0010 14.34818894441936
ORBCOMM FM04            
1 25159U 98007C   25292.90038871  .00001861  00000+0  69170-3 0  9993
2 25159 107.9624  35.1412 0038970  25.4562 334.8488 14.35061284442114
ORBCOMM FM17            
1 25413U 98046A   25292.58115850  .00001676  00000+0  62753-3 0  9990
2 25413  44.9954  30.4239 0002970 153.9381 206.1616 14.35363317421040
ORBCOMM FM18            
1 25414U 98046B   25292.71619099  .00002216  00000+0  75794-3 0  9990
2 25414  44.9930 303.8214 0005364 217.7422 142.3051 14.38923777422185
ORBCOMM FM19            
1 25415U 98046C   25292.78154418  .00002001  00000+0  69148-3 0  9995
2 25415  44.9945 305.7033 0004153 220.9965 308.8525 14.38739412422147
